

                         Two Line Element Set                        
---------------------------------------------------------------------
1 99999U          21305.00000000 -.00000192  00000-0 -75062-4 0 00007
2 99999 029.1189 240.4033 0005133 265.4817 138.0196 14.28715061000012


                         Two Line Element Set                        
---------------------------------------------------------------------
1 99999U          21305.00000000 -.00000233  00000-0 -90756-4 0 00000
2 99999 029.1189 240.4033 0005126 265.6950 154.1698 14.28715107000011


                         Two Line Element Set                        
---------------------------------------------------------------------
1 99999U          21305.00000000 -.00000289  00000-0 -11283-3 0 00008
2 99999 029.1188 240.4033 0005115 265.8796 170.3487 14.28715178000012


                         Two Line Element Set                        
---------------------------------------------------------------------
1 99999U          21305.00000000 -.00000361  00000-0 -14104-3 0 00004
2 99999 029.1188 240.4033 0005099 266.0188 186.5730 14.28715274000018


                         Two Line Element Set                        
---------------------------------------------------------------------
1 99999U          21305.00000000 -.00000440  00000-0 -17172-3 0 00000
2 99999 029.1188 240.4033 0005080 266.0995 202.8559 14.28715386000019


                         Two Line Element Set                        
---------------------------------------------------------------------
1 99999U          21305.00000000 -.00000509  00000-0 -19876-3 0 00009
2 99999 029.1188 240.4032 0005060 266.1145 219.2045 14.28715497000019


                         Two Line Element Set                        
---------------------------------------------------------------------
1 99999U          21305.00000000 -.00000551  00000-0 -21493-3 0 00004
2 99999 029.1188 240.4032 0005041 266.0643 235.6183 14.28715587000015


                         Two Line Element Set                        
---------------------------------------------------------------------
1 99999U          21305.00000000 -.00000548  00000-0 -21371-3 0 00005
2 99999 029.1188 240.4031 0005024 265.9564 252.0897 14.28715634000013


                         Two Line Element Set                        
---------------------------------------------------------------------
1 99999U          21305.00000000 -.00000490  00000-0 -19125-3 0 00005
2 99999 029.1188 240.4031 0005012 265.8036 268.6062 14.28715621000016


                         Two Line Element Set                        
---------------------------------------------------------------------
1 99999U          21305.00000000 -.00000380  00000-0 -14845-3 0 00007
2 99999 029.1189 240.4031 0005003 265.6204 285.1530 14.28715545000011


                         Two Line Element Set                        
---------------------------------------------------------------------
1 99999U          21305.00000000 -.00000235  00000-0 -91643-4 0 00008
2 99999 029.1189 240.4032 0004999 265.4210 301.7160 14.28715418000013


                         Two Line Element Set                        
---------------------------------------------------------------------
1 99999U          21305.00000000 -.00000079  00000-0 -30912-4 0 00006
2 99999 029.1189 240.4033 0005000 265.2176 318.2831 14.28715261000011


                         Two Line Element Set                        
---------------------------------------------------------------------
1 99999U          21305.00000000  .00000059  00000-0  22990-4 0 00009
2 99999 029.1189 240.4033 0005005 265.0215 334.8429 14.28715103000010


                         Two Line Element Set                        
---------------------------------------------------------------------
1 99999U          21305.00000000  .00000158  00000-0  61523-4 0 00004
2 99999 029.1188 240.4033 0005014 264.8449 351.3834 14.28714968000017


                         Two Line Element Set                        
---------------------------------------------------------------------
1 99999U          21305.00000000  .00000205  00000-0  79952-4 0 00002
2 99999 029.1188 240.4033 0005028 264.7016 007.8904 14.28714875000019


                         Two Line Element Set                        
---------------------------------------------------------------------
1 99999U          21305.00000000  .00000200  00000-0  77938-4 0 00009
2 99999 029.1188 240.4033 0005046 264.6062 024.3495 14.28714831000010


                         Two Line Element Set                        
---------------------------------------------------------------------
1 99999U          21305.00000000  .00000152  00000-0  59237-4 0 00007
2 99999 029.1188 240.4032 0005065 264.5707 040.7488 14.28714831000019


                         Two Line Element Set                        
---------------------------------------------------------------------
1 99999U          21305.00000000  .00000078  00000-0  30432-4 0 00000
2 99999 029.1188 240.4032 0005085 264.6012 057.0820 14.28714864000018


                         Two Line Element Set                        
---------------------------------------------------------------------
1 99999U          21305.00000000 -.00000002  00000-0 -90525-6 0 00000
2 99999 029.1188 240.4031 0005103 264.6962 073.3506 14.28714912000018


                         Two Line Element Set                        
---------------------------------------------------------------------
1 99999U          21305.00000000 -.00000073  00000-0 -28317-4 0 00006
2 99999 029.1188 240.4031 0005118 264.8472 089.5633 14.28714960000015


                         Two Line Element Set                        
---------------------------------------------------------------------
1 99999U          21305.00000000 -.00000132  00000-0 -51540-4 0 00006
2 99999 029.1198 300.1880 0005130 265.0780 108.6695 14.28714966000018


                         Two Line Element Set                        
---------------------------------------------------------------------
1 99999U          21305.00000000 -.00000166  00000-0 -64952-4 0 00004
2 99999 029.1198 300.1880 0005134 265.2980 124.8130 14.28714996000013


                         Two Line Element Set                        
---------------------------------------------------------------------
1 99999U          21305.00000000 -.00000199  00000-0 -77586-4 0 00007
2 99999 029.1198 300.1881 0005132 265.5217 140.9529 14.28715029000017
